# MOIDs: Me  1.5849 Ve  1.2061 Ea  0.9428 Ma  0.2714
# MOIDs: Ju  2.3292 Sa  6.9176 Ur 16.2825 Ne 27.2970
# Elements written: 15 Feb 2021  6:54:10 (JD 2459260.787616)
# Find_Orb ver: Feb 15 2021 15:54:00
# Perturbers: 00000001 
# Tisserand relative to Earth: 3.42556
# Tisserand relative to Jupiter: 3.55707
# Tisserand relative to Neptune: 13.51627
Orbital elements:
H005718
   Perihelion 2015 Jan 26.631753 TT = 15:09:43 (JD 2457049.131753)
Epoch 2015 Jan 27.0 TT = JDT 2457049.5   Earth MOID: 0.9430
M   0.09833              (2000.0)            P               Q
n   0.26703937     Peri.   64.84752     -0.71082325     -0.69999406     
a   2.38828335     Node    70.64013      0.61620765     -0.66693618     
e   0.1942240      Incl.    4.18420      0.33914367     -0.25535157     
P   3.69           H   21.3     G   0.15   q 1.92442128  Q 2.85214541
From 4 observations 2015 Jan. 26-26 (70.0 min);   RMS error 0.091 arcseconds
# State vector:
#   -1.367746034602   1.347781931771   0.127090364048 AU
#   -9.486745350249  -9.667318837535   0.420338169104 mAU/day
# MOIDs: Me  1.5856 Ve  1.2061 Ea  0.9430 Ma  0.2737
# MOIDs: Ju  2.1981 Sa  6.8474 Ur 16.2685 Ne 27.1702
# Elements written: 15 Feb 2021  6:54:10 (JD 2459260.787616)
# Find_Orb ver: Feb 15 2021 15:54:00
# Perturbers: 00000001 
# Tisserand relative to Earth: 3.44259
# Tisserand relative to Jupiter: 3.50431
# Tisserand relative to Neptune: 13.14166
Orbital elements:
H005719
   Perihelion 2015 Jan 26.631756 TT = 15:09:43 (JD 2457049.131756)
Epoch 2015 Jan 27.0 TT = JDT 2457049.5   Earth MOID: 0.9430
M   0.10704              (2000.0)            P               Q
n   0.29069702     Peri.   70.12083     -0.70963862     -0.70164471     
a   2.25688272     Node    65.25810      0.61715423     -0.66290508     
e   0.1473100      Incl.    4.04670      0.33990244     -0.26124997     
P   3.39           H   20.5     G   0.15   q 1.92442129  Q 2.58934415
From 3 observations 2015 Jan. 26-26 (70.0 min);   RMS error 0.023 arcseconds
# State vector:
#   -1.365469392873   1.350030177322   0.127707363138 AU
#   -9.320483025037  -9.457547193829   0.318824523777 mAU/day
# MOIDs: Me  1.5839 Ve  1.2061 Ea  0.9430 Ma  0.2731
# MOIDs: Ju  2.4487 Sa  6.9612 Ur 16.2982 Ne 27.4091
# Elements written: 15 Feb 2021  6:54:10 (JD 2459260.787616)
# Find_Orb ver: Feb 15 2021 15:54:00
# Perturbers: 00000001 
# Tisserand relative to Earth: 3.40749
# Tisserand relative to Jupiter: 3.60509
# Tisserand relative to Neptune: 13.86385
Orbital elements:
H005720
   Perihelion 2015 Jan 26.630674 TT = 15:08:10 (JD 2457049.130674)
Epoch 2015 Jan 27.0 TT = JDT 2457049.5                  Find_Orb
M   0.09858              (2000.0)            P               Q
n   0.26694433     Peri.   82.96272     -0.71882548     -0.69270188     
a   2.38885016     Node    53.17187      0.60532506     -0.66523682     
e   0.1170205      Incl.    4.21063      0.34186471     -0.27861094     
P   3.69           H   21.3     G   0.15   q 2.10930555  Q 2.66839478
From 4 observations 2015 Jan. 26-26 (70.0 min);   RMS error 0.100 arcseconds
# State vector:
#   -1.516069816447   1.458450344741   0.153703664336 AU
#   -8.672230899128  -9.026922339693   0.112692598953 mAU/day
# MOIDs: Me  1.7667 Ve  1.3911 Ea  1.1281 Ma  0.4558
# MOIDs: Ju  2.3617 Sa  6.8035 Ur 16.1254 Ne 27.3113
# Elements written: 15 Feb 2021  6:54:10 (JD 2459260.787616)
# Find_Orb ver: Feb 15 2021 15:54:00
# Perturbers: 00000001 
# Tisserand relative to Earth: 3.48027
# Tisserand relative to Jupiter: 3.52036
# Tisserand relative to Neptune: 13.14557
Orbital elements:
H005721
   Perihelion 2015 Jan 26.631756 TT = 15:09:43 (JD 2457049.131756)
Epoch 2015 Jan 27.0 TT = JDT 2457049.5   Earth MOID: 0.9432
M   0.10430              (2000.0)            P               Q
n   0.28324513     Peri.   76.05512     -0.70918366     -0.70246861     
a   2.29629533     Node    59.27883      0.61692629     -0.65949041     
e   0.1619452      Incl.    4.00017      0.34126305     -0.26760087     
P   3.48           H   21.4     G   0.15   q 1.92442129  Q 2.66816938
From 4 observations 2015 Jan. 26-26 (70.0 min);   RMS error 0.040 arcseconds
# State vector:
#   -1.364592556962   1.350670218260   0.130285945514 AU
#   -9.390746627499  -9.509574016775   0.224811661376 mAU/day
# MOIDs: Me  1.5846 Ve  1.2061 Ea  0.9432 Ma  0.2735
# MOIDs: Ju  2.3739 Sa  6.9341 Ur 16.2886 Ne 27.3389
# Elements written: 15 Feb 2021  6:54:10 (JD 2459260.787616)
# Find_Orb ver: Feb 15 2021 15:54:00
# Perturbers: 00000001 
# Tisserand relative to Earth: 3.41890
# Tisserand relative to Jupiter: 3.57385
# Tisserand relative to Neptune: 13.63864
Orbital elements:
H005722
   Perihelion 2015 Jan 26.554078 TT = 13:17:52 (JD 2457049.054078)
Epoch 2015 Jan 26.0 TT = JDT 2457048.5                  Find_Orb
M 359.85054              (2000.0)            P               Q
n   0.26974434     Peri.   83.58535     -0.72964531     -0.68052572     
a   2.37229020     Node    53.50539      0.58977203     -0.67591620     
e   0.0173349      Incl.    4.78788      0.34610209     -0.28288163     
P   3.65           H   20.3     G   0.15   q 2.33116665  Q 2.41341374
From 5 observations 2015 Jan. 26-26 (4.8 hr);   RMS error 0.030 arcseconds
# State vector:
#   -1.700216260864   1.583104300230   0.193348010154 AU
#   -7.737053572988  -8.322531262130   0.106384177198 mAU/day
# MOIDs: Me  1.9195 Ve  1.6132 Ea  1.3491 Ma  0.6745
# MOIDs: Ju  2.5587 Sa  6.6839 Ur 15.9533 Ne 27.4340
# Elements written: 15 Feb 2021  6:54:10 (JD 2459260.787616)
# Find_Orb ver: Feb 15 2021 15:54:00
# Perturbers: 00000001 
# Tisserand relative to Earth: 3.49077
# Tisserand relative to Jupiter: 3.53889
# Tisserand relative to Neptune: 13.23481
Orbital elements:
H005723
   Perihelion 2012 Mar 28.787284 TT = 18:53:41 (JD 2456015.287284)
Epoch 2015 Jan 26.0 TT = JDT 2457048.5                  Find_Orb
M 179.90450              (2000.0)            P               Q
n   0.17412145     Peri.  319.07212      0.75281079      0.65823666     
a   3.17615132     Node   359.75954     -0.55735572      0.63691926     
e   0.0390739      Incl.    8.74371     -0.35018638      0.40132075     
P   5.66           H   17.8     G   0.15   q 3.05204665  Q 3.30025600
From 5 observations 2015 Jan. 26-26 (4.8 hr);   RMS error 0.049 arcseconds
# State vector:
#   -2.483943008070   2.147938275303   0.328752098833 AU
#   -6.111666296657  -6.904447422508  -1.065856884959 mAU/day
# MOIDs: Me  2.6185 Ve  2.3248 Ea  2.0460 Ma  1.6171
# MOIDs: Ju  1.8640 Sa  5.8131 Ur 15.0053 Ne 26.6702
# Elements written: 15 Feb 2021  6:54:10 (JD 2459260.787616)
# Find_Orb ver: Feb 15 2021 15:54:00
# Perturbers: 00000001 
# Tisserand relative to Earth: 3.83508
# Tisserand relative to Jupiter: 3.18148
# Tisserand relative to Neptune: 10.10908
Orbital elements:
H005724
   Perihelion 2015 Jan 26.626829 TT = 15:02:38 (JD 2457049.126829)
Epoch 2015 Jan 27.0 TT = JDT 2457049.5   Earth MOID: 0.1961   Ma: 0.0310
M   0.25760              (2000.0)            P               Q
n   0.69030914     Peri.   46.12633     -0.63258377     -0.77377112     
a   1.26796411     Node    83.14466      0.70058568     -0.59007522     
e   0.0698343      Incl.    1.92821      0.33017792     -0.23041154     
P   1.43/521.50d   H   26.1     G   0.15   q 1.17941670  Q 1.35651152
From 4 observations 2015 Jan. 26-26 (70.0 min);   RMS error 0.285 arcseconds
# State vector:
#   -0.745905267282   0.913143486293   0.028601899060 AU
#  -12.678914280786 -10.369060441334   0.382133425710 mAU/day
# MOIDs: Me  0.8169 Ve  0.4615 Ea  0.1961 Ma  0.0310
# MOIDs: Ju  3.6388 Sa  7.8231 Ur 17.0860 Ne 28.5418
# Elements written: 15 Feb 2021  6:54:10 (JD 2459260.787616)
# Find_Orb ver: Feb 15 2021 15:54:00
# Perturbers: 00000001 
# Tisserand relative to Earth: 3.03397
# Tisserand relative to Jupiter: 5.08799
# Tisserand relative to Neptune: 24.12386
Orbital elements:
H005725
   Perihelion 2012 Oct 3.911468 TT = 21:52:30 (JD 2456204.411468)
Epoch 2015 Jan 26.0 TT = JDT 2457048.5                  Find_Orb
M 179.88264              (2000.0)            P               Q
n   0.21310874     Peri.  322.34829      0.74634109      0.66546886     
a   2.77588753     Node   355.87968     -0.56633927      0.62611855     
e   0.0507918      Incl.    8.99378     -0.34962092      0.40635790     
P   4.62           H   19.7     G   0.15   q 2.63489507  Q 2.91688000
From 5 observations 2015 Jan. 26-26 (4.8 hr);   RMS error 0.115 arcseconds
# State vector:
#   -2.176411408096   1.921919718126   0.278651938968 AU
#   -6.532551233746  -7.221272557795  -1.214269272365 mAU/day
# MOIDs: Me  2.2023 Ve  1.9075 Ea  1.6286 Ma  1.2284
# MOIDs: Ju  2.2706 Sa  6.1890 Ur 15.3913 Ne 27.0620
# Elements written: 15 Feb 2021  6:54:10 (JD 2459260.787616)
# Find_Orb ver: Feb 15 2021 15:54:00
# Perturbers: 00000001 
# Tisserand relative to Earth: 3.64723
# Tisserand relative to Jupiter: 3.31544
# Tisserand relative to Neptune: 11.43164
Orbital elements:
H005726
   Perihelion 2013 Apr 29.195356 TT =  4:41:18 (JD 2456411.695356)
Epoch 2015 Jan 26.0 TT = JDT 2457048.5                  Find_Orb
M 179.84351              (2000.0)            P               Q
n   0.28241552     Peri.  290.84347      0.72791729      0.68455011     
a   2.30079011     Node    26.00508     -0.59128713      0.65556305     
e   0.0132026      Incl.    5.11418     -0.34715405      0.31879179     
P   3.49           H   21.0     G   0.15   q 2.27041355  Q 2.33116666
From 5 observations 2015 Jan. 26-26 (4.8 hr);   RMS error 0.171 arcseconds
# State vector:
#   -1.696194531575   1.587304254924   0.194235247613 AU
#   -7.665133841478  -8.147483059524  -0.354570329485 mAU/day
# MOIDs: Me  1.8159 Ve  1.5427 Ea  1.2626 Ma  0.6660
# MOIDs: Ju  2.6663 Sa  6.7128 Ur 15.9629 Ne 27.5150
# Elements written: 15 Feb 2021  6:54:10 (JD 2459260.787616)
# Find_Orb ver: Feb 15 2021 15:54:00
# Perturbers: 00000001 
# Tisserand relative to Earth: 3.45596
# Tisserand relative to Jupiter: 3.58605
# Tisserand relative to Neptune: 13.61997
Orbital elements:
